NORAD_CAT_ID,OBJECT_NAME,OBJECT_TYPE,EPOCH,MEAN_MOTION,ECCENTRICITY,INCLINATION,RA_OF_ASC_NODE,ARG_OF_PERICENTER,MEAN_ANOMALY,BSTAR,MEAN_MOTION_DOT,MEAN_MOTION_DDOT,TLE_LINE0,TLE_LINE1,TLE_LINE2,SEMIMAJOR_AXIS,PERIOD,APOGEE,PERIGEE,DECAYED
55752.0,STARLINK-5613,PAYLOAD,2024-06-21 22:46:52,14.98332252,0.0003045,70.0003,22.0369,273.0191,87.062,5.2511e-05,5.34e-06,0.0,0 STARLINK-5613,1 55752U 23028M   24173.94922028  .00000534  00000-0  52511-4 0  9992,2 55752  70.0003  22.0369 0003045 273.0191  87.0620 14.98332252 72318,6950.186,96.107,574.167,569.935,0.0
55752.0,STARLINK-5613,PAYLOAD,2024-06-22 00:23:00,14.98332813,0.0003038,70.0003,21.8687,272.6989,87.3822,5.7643e-05,5.95e-06,0.0,0 STARLINK-5613,1 55752U 23028M   24174.01597969  .00000595  00000-0  57643-4 0  9991,2 55752  70.0003  21.8687 0003038 272.6989  87.3822 14.98332813 72321,6950.184,96.107,574.161,569.938,0.0
55752.0,STARLINK-5613,PAYLOAD,2024-06-22 14:48:13,14.98330138,0.0002979,70.0005,20.3544,269.5468,90.5349,1.6813e-05,1.08e-06,0.0,0 STARLINK-5613,1 55752U 23028M   24174.61682196  .00000108  00000-0  16813-4 0  9998,2 55752  70.0005  20.3544 0002979 269.5468  90.5349 14.98330138 72417,6950.192,96.107,574.128,569.987,0.0
55752.0,STARLINK-5613,PAYLOAD,2024-06-22 22:48:53,14.9833009,0.0002987,70.0004,19.5128,269.1878,90.8939,1.3996e-05,7.4e-07,0.0,0 STARLINK-5613,1 55752U 23028M   24174.95062189  .00000074  00000-0  13996-4 0  9990,2 55752  70.0004  19.5128 0002987 269.1878  90.8939 14.98330090 72464,6950.193,96.107,574.134,569.982,0.0
55752.0,STARLINK-5613,PAYLOAD,2024-06-23 13:14:06,14.98330311,0.0002893,70.0006,17.9978,264.4547,95.6282,3.9703e-06,-4.6e-07,0.0,0 STARLINK-5613,1 55752U 23028M   24175.55146144 -.00000046  00000-0  39703-5 0  9996,2 55752  70.0006  17.9978 0002893 264.4547  95.6282 14.98330311 72558,6950.192,96.107,574.068,570.046,0.0
55752.0,STARLINK-5613,PAYLOAD,2024-06-23 14:50:14,14.98330476,0.0002901,70.0006,17.8294,264.2936,95.7893,4.5118e-06,-3.9e-07,0.0,0 STARLINK-5613,1 55752U 23028M   24175.61822122 -.00000039  00000-0  45118-5 0  9999,2 55752  70.0006  17.8294 0002901 264.2936  95.7893 14.98330476 72560,6950.191,96.107,574.073,570.04,0.0
55752.0,STARLINK-5613,PAYLOAD,2024-06-23 22:50:54,14.98330398,0.0002922,70.0005,16.9877,264.3917,95.6909,2.0509e-06,-6.9e-07,0.0,0 STARLINK-5613,1 55752U 23028M   24175.95202122 -.00000069  00000-0  20509-5 0  9998,2 55752  70.0005  16.9877 0002922 264.3917  95.6909 14.98330398 72615,6950.192,96.107,574.088,570.026,0.0
55752.0,STARLINK-5613,PAYLOAD,2024-06-24 14:52:15,14.98330629,0.0002977,70.0003,15.304,264.7842,95.2977,4.2512e-05,4.14e-06,0.0,0 STARLINK-5613,1 55752U 23028M   24176.61961944  .00000414  00000-0  42512-4 0  9996,2 55752  70.0003  15.3040 0002977 264.7842  95.2977 14.98330629 72718,6950.191,96.107,574.125,569.987,0.0
55752.0,STARLINK-5613,PAYLOAD,2024-06-24 19:40:39,14.98330059,0.0002999,70.0004,14.7989,264.7086,95.3731,3.3192e-05,3.03e-06,0.0,0 STARLINK-5613,1 55752U 23028M   24176.81989998  .00000303  00000-0  33192-4 0  9998,2 55752  70.0004  14.7989 0002999 264.7086  95.3731 14.98330059 72747,6950.193,96.107,574.142,569.973,0.0
55752.0,STARLINK-5613,PAYLOAD,2024-06-24 21:16:47,14.98330948,0.0002981,70.0004,14.6306,264.4518,95.6301,4.3559e-05,4.27e-06,0.0,0 STARLINK-5613,1 55752U 23028M   24176.88665909  .00000427  00000-0  43559-4 0  9993,2 55752  70.0004  14.6306 0002981 264.4518  95.6301 14.98330948 72751,6950.19,96.107,574.127,569.983,0.0
55752.0,STARLINK-5613,PAYLOAD,2024-06-25 14:54:16,14.98330063,0.0002987,70.0004,12.7791,264.6162,95.4657,2.4753e-05,2.02e-06,0.0,0 STARLINK-5613,1 55752U 23028M   24177.62101977  .00000202  00000-0  24753-4 0  9992,2 55752  70.0004  12.7791 0002987 264.6162  95.4657 14.98330063 72863,6950.193,96.107,574.134,569.982,0.0
55752.0,STARLINK-5613,PAYLOAD,2024-06-25 19:42:40,14.98330073,0.0002985,70.0005,12.274,264.3241,95.7578,2.3975e-05,1.93e-06,0.0,0 STARLINK-5613,1 55752U 23028M   24177.82129970  .00000193  00000-0  23975-4 0  9991,2 55752  70.0005  12.2740 0002985 264.3241  95.7578 14.98330073 72895,6950.193,96.107,574.132,569.983,0.0
55752.0,STARLINK-5613,PAYLOAD,2024-06-25 21:18:48,14.98331926,0.0002951,70.0005,12.1058,263.9651,96.1172,4.6433e-05,4.61e-06,0.0,0 STARLINK-5613,1 55752U 23028M   24177.88805781  .00000461  00000-0  46433-4 0  9990,2 55752  70.0005  12.1058 0002951 263.9651  96.1172 14.98331926 72904,6950.187,96.107,574.103,570.001,0.0
55752.0,STARLINK-5613,PAYLOAD,2024-06-25 22:54:56,14.98332727,0.0002951,70.0005,11.9376,264.0997,95.9826,5.4008e-05,5.52e-06,0.0,0 STARLINK-5613,1 55752U 23028M   24177.95481703  .00000552  00000-0  54008-4 0  9990,2 55752  70.0005  11.9376 0002951 264.0997  95.9826 14.98332727 72913,6950.184,96.107,574.1,569.998,0.0
55752.0,STARLINK-5613,PAYLOAD,2024-06-26 22:56:56,14.98335427,0.000292,70.0006,9.4133,261.2746,98.8082,5.1467e-05,5.21e-06,0.0,0 STARLINK-5613,1 55752U 23028M   24178.95621273  .00000521  00000-0  51467-4 0  9991,2 55752  70.0006   9.4133 0002920 261.2746  98.8082 14.98335427 73067,6950.176,96.107,574.071,570.012,0.0
55752.0,STARLINK-5613,PAYLOAD,2024-06-27 19:46:41,14.98330372,0.0003044,70.0004,7.2248,266.9304,93.1507,-7.4779e-06,-1.82e-06,0.0,0 STARLINK-5613,1 55752U 23028M   24179.82409714 -.00000182  00000-0 -74779-5 0  9999,2 55752  70.0004   7.2248 0003044 266.9304  93.1507 14.98330372 73196,6950.192,96.107,574.172,569.941,0.0
55752.0,STARLINK-5613,PAYLOAD,2024-06-27 21:22:49,14.98331013,0.000303,70.0005,7.0567,266.6836,93.3976,-1.2616e-07,-9.5e-07,0.0,0 STARLINK-5613,1 55752U 23028M   24179.89085648 -.00000095  00000-0 -12616-6 0  9998,2 55752  70.0005   7.0567 0003030 266.6836  93.3976 14.98331013 73208,6950.19,96.107,574.161,569.949,0.0
55752.0,STARLINK-5613,PAYLOAD,2024-06-28 15:00:18,14.98329205,0.0003135,70.0002,5.2041,269.8427,90.2373,7.2584e-05,7.73e-06,0.0,0 STARLINK-5613,1 55752U 23028M   24180.62521379  .00000773  00000-0  72584-4 0  9996,2 55752  70.0002   5.2041 0003135 269.8427  90.2373 14.98329205 73318,6950.195,96.107,574.239,569.881,0.0
55752.0,STARLINK-5613,PAYLOAD,2024-06-28 19:48:42,14.98334156,0.0003,70.0003,4.6991,269.4874,90.5941,0.0001086,1.203e-05,0.0,0 STARLINK-5613,1 55752U 23028M   24180.82548995  .00001203  00000-0  10860-3 0  9998,2 55752  70.0003   4.6991 0003000 269.4874  90.5941 14.98334156 73347,6950.18,96.107,574.13,569.96,0.0
55752.0,STARLINK-5613,PAYLOAD,2024-06-28 21:24:50,14.98335939,0.0002984,70.0004,4.5311,268.5615,91.5202,0.00012603,1.411e-05,0.0,0 STARLINK-5613,1 55752U 23028M   24180.89224819  .00001411  00000-0  12603-3 0  9999,2 55752  70.0004   4.5311 0002984 268.5615  91.5202 14.98335939 73358,6950.175,96.107,574.113,569.966,0.0
55752.0,STARLINK-5613,PAYLOAD,2024-06-29 11:50:03,14.98325666,0.0002375,70.0017,3.0182,259.6004,100.4888,2.4222e-05,1.96e-06,0.0,0 STARLINK-5613,1 55752U 23028M   24181.49309908  .00000196  00000-0  24222-4 0  9999,2 55752  70.0017   3.0182 0002375 259.6004 100.4888 14.98325666 73445,6950.206,96.107,573.722,570.421,0.0
55752.0,STARLINK-5613,PAYLOAD,2024-06-29 15:02:20,14.98321454,0.000269,70.0014,2.6832,256.6278,103.4581,-5.8947e-05,-7.96e-06,0.0,0 STARLINK-5613,1 55752U 23028M   24181.62662391 -.00000796  00000-0 -58947-4 0  9991,2 55752  70.0014   2.6832 0002690 256.6278 103.4581 14.98321454 73465,6950.219,96.108,573.954,570.215,0.0
55752.0,STARLINK-5613,PAYLOAD,2024-06-29 19:50:45,14.98271872,0.0002529,70.0009,2.1753,263.7588,96.3283,0.0007214,8.512e-05,0.0,0 STARLINK-5613,1 55752U 23028M   24181.82691767  .00008512  00000-0  72140-3 0  9994,2 55752  70.0009   2.1753 0002529 263.7588  96.3283 14.98271872 73490,6950.373,96.111,573.995,570.48,0.0
55752.0,STARLINK-5613,PAYLOAD,2024-06-29 21:26:53,14.98299036,0.0002723,70.0009,2.0069,260.2671,99.8181,0.00026073,3.017e-05,0.0,0 STARLINK-5613,1 55752U 23028M   24181.89367258  .00003017  00000-0  26073-3 0  9995,2 55752  70.0009   2.0069 0002723 260.2671  99.8181 14.98299036 73509,6950.289,96.109,574.046,570.261,0.0
55752.0,STARLINK-5613,PAYLOAD,2024-06-30 05:27:32,14.98325715,0.0002984,70.0004,1.1642,269.2581,90.8236,3.2428e-06,-5.4e-07,0.0,0 STARLINK-5613,1 55752U 23028M   24182.22746252 -.00000054  00000-0  32428-5 0  9990,2 55752  70.0004   1.1642 0002984 269.2581  90.8236 14.98325715 73550,6950.206,96.107,574.145,569.997,0.0
55752.0,STARLINK-5613,PAYLOAD,2024-06-30 13:28:12,14.9833246,0.0003003,70.0003,0.3226,268.9005,91.181,3.4099e-05,3.14e-06,0.0,0 STARLINK-5613,1 55752U 23028M   24182.56125771  .00000314  00000-0  34099-4 0  9997,2 55752  70.0003   0.3226 0003003 268.9005  91.1810 14.98332460 73601,6950.185,96.107,574.137,569.963,0.0
55752.0,STARLINK-5613,PAYLOAD,2024-06-30 19:52:44,14.9833883,0.0002985,70.0004,359.65,265.4554,94.6264,6.2958e-05,6.58e-06,0.0,0 STARLINK-5613,1 55752U 23028M   24182.82829263  .00000658  00000-0  62958-4 0  9999,2 55752  70.0004 359.6500 0002985 265.4554  94.6264 14.98338830 73648,6950.166,96.106,574.105,569.956,0.0
55752.0,STARLINK-5613,PAYLOAD,2024-06-30 21:28:52,14.98340604,0.0003076,70.0001,359.4807,267.4407,92.64,7.5723e-05,8.11e-06,0.0,0 STARLINK-5613,1 55752U 23028M   24182.89505087  .00000811  00000-0  75723-4 0  9996,2 55752  70.0001 359.4807 0003076 267.4407  92.6400 14.98340604 73657,6950.16,96.106,574.163,569.887,0.0
55752.0,STARLINK-5613,PAYLOAD,2024-07-01 11:54:05,14.98323452,0.0002996,70.0002,357.9657,268.0858,91.9958,0.00019127,2.19e-05,0.0,0 STARLINK-5613,1 55752U 23028M   24183.49589855  .00002190  00000-0  19127-3 0  9995,2 55752  70.0002 357.9657 0002996 268.0858  91.9958 14.98323452 73743,6950.213,96.107,574.16,569.996,0.0
55752.0,STARLINK-5613,PAYLOAD,2024-07-01 13:30:13,14.98323386,0.0003002,70.0002,357.7974,268.0745,92.007,0.00018852,2.157e-05,0.0,0 STARLINK-5613,1 55752U 23028M   24183.56265909  .00002157  00000-0  18852-3 0  9991,2 55752  70.0002 357.7974 0003002 268.0745  92.0070 14.98323386 73751,6950.213,96.107,574.165,569.992,0.0
